{
    "links": {
        "self": "http://www.neowsapp.com/rest/v1/neo/3767260?api_key=iIulBulltgU6a56xZRHN4H3l9WmuAYTsLGpBGhQ2"
    },
    "id": "3767260",
    "neo_reference_id": "3767260",
    "name": "(2017 BK32)",
    "designation": "2017 BK32",
    "nasa_jpl_url": "http://ssd.jpl.nasa.gov/sbdb.cgi?sstr=3767260",
    "absolute_magnitude_h": 26.1,
    "estimated_diameter": {
        "kilometers": {
            "estimated_diameter_min": 0.0160160338,
            "estimated_diameter_max": 0.0358129403
        },
        "meters": {
            "estimated_diameter_min": 16.0160337979,
            "estimated_diameter_max": 35.8129403019
        },
        "miles": {
            "estimated_diameter_min": 0.0099518989,
            "estimated_diameter_max": 0.0222531225
        },
        "feet": {
            "estimated_diameter_min": 52.5460443254,
            "estimated_diameter_max": 117.4965270602
        }
    },
    "is_potentially_hazardous_asteroid": false,
    "close_approach_data": [
        {
            "close_approach_date": "2017-02-12",
            "close_approach_date_full": "2017-Feb-12 12:36",
            "epoch_date_close_approach": 1486902960000,
            "relative_velocity": {
                "kilometers_per_second": "13.4734193012",
                "kilometers_per_hour": "48504.3094841461",
                "miles_per_hour": "30138.6916347462"
            },
            "miss_distance": {
                "astronomical": "0.0272227384",
                "lunar": "10.5896452376",
                "kilometers": "4072463.680207208",
                "miles": "2530511.5894991504"
            },
            "orbiting_body": "Earth"
        },
        {
            "close_approach_date": "2084-01-29",
            "close_approach_date_full": "2084-Jan-29 14:53",
            "epoch_date_close_approach": 3599995980000,
            "relative_velocity": {
                "kilometers_per_second": "21.2277150936",
                "kilometers_per_hour": "76419.7743369902",
                "miles_per_hour": "47484.2758928926"
            },
            "miss_distance": {
                "astronomical": "0.294204225",
                "lunar": "114.445443525",
                "kilometers": "44012325.40500075",
                "miles": "27347990.86348035"
            },
            "orbiting_body": "Earth"
        }
    ],
    "orbital_data": {
        "orbit_id": "5",
        "orbit_determination_date": "2017-04-06 08:20:35",
        "first_observation_date": "2017-01-28",
        "last_observation_date": "2017-02-11",
        "data_arc_in_days": 14,
        "observations_used": 23,
        "orbit_uncertainty": "8",
        "minimum_orbit_intersection": ".0241873",
        "jupiter_tisserand_invariant": "3.570",
        "epoch_osculation": "2457783.5",
        "eccentricity": ".5836904420549403",
        "semi_major_axis": "2.036683141268019",
        "inclination": "2.416014940066555",
        "ascending_node_longitude": "108.3985299302462",
        "orbital_period": "1061.655538260613",
        "perihelion_distance": ".8478906582154446",
        "perihelion_argument": "88.84785563505075",
        "aphelion_distance": "3.225475624320593",
        "perihelion_time": "2457834.157406348060",
        "mean_anomaly": "342.8224262690891",
        "mean_motion": ".3390930363249592",
        "equinox": "J2000",
        "orbit_class": {
            "orbit_class_type": "APO",
            "orbit_class_description": "Near-Earth asteroid orbits which cross the Earth’s orbit similar to that of 1862 Apollo",
            "orbit_class_range": "a (semi-major axis) > 1.0 AU; q (perihelion) < 1.017 AU"
        }
    },
    "is_sentry_object": false
}